{
  "type": "FeatureCollection",
  "features": [
    {
      "type": "Feature",
      "properties": {
        "norad_id": 40069,
        "name": "METEOR-M 2",
        "group": "weather",
        "lat": 80.71440487816706,
        "lon": -149.90896283254548,
        "alt_km": 814.8628735098418,
        "timestamp": "2025-12-12T11:38:31.059075+00:00",
        "meta_object_name": "METEOR-M 2",
        "meta_object_id": "2014-037A",
        "meta_epoch": "2025-12-12T04:26:39.653088",
        "meta_mean_motion": 14.21386145,
        "meta_eccentricity": 0.0004948,
        "meta_inclination": 98.4905,
        "meta_ra_of_asc_node": 323.7908,
        "meta_arg_of_pericenter": 211.8662,
        "meta_mean_anomaly": 148.2217,
        "meta_ephemeris_type": 0,
        "meta_classification_type": "U",
        "meta_norad_cat_id": 40069,
        "meta_element_set_no": 999,
        "meta_rev_at_epoch": 59275,
        "meta_bstar": 0.00011305,
        "meta_mean_motion_dot": 2.05e-06,
        "meta_mean_motion_ddot": 0,
        "tle_line1": "1 40069U 14037A   25346.18518117  .00000205  00000+0  11305-3 0  9995",
        "tle_line2": "2 40069  98.4905 323.7908 0004948 211.8662 148.2217 14.21386145592757"
      },
      "geometry": {
        "type": "Point",
        "coordinates": [
          -149.90896283254548,
          80.71440487816706
        ]
      }
    },
    {
      "type": "Feature",
      "properties": {
        "norad_id": 40267,
        "name": "HIMAWARI-8",
        "group": "weather",
        "lat": 0.013434328492562026,
        "lon": 36.717255533731674,
        "alt_km": 35786.86787834692,
        "timestamp": "2025-12-12T11:38:31.059088+00:00",
        "meta_object_name": "HIMAWARI-8",
        "meta_object_id": "2014-060A",
        "meta_epoch": "2025-12-11T21:01:39.373824",
        "meta_mean_motion": 1.00270133,
        "meta_eccentricity": 0.0001215,
        "meta_inclination": 0.0351,
        "meta_ra_of_asc_node": 192.2334,
        "meta_arg_of_pericenter": 111.8054,
        "meta_mean_anomaly": 232.8585,
        "meta_ephemeris_type": 0,
        "meta_classification_type": "U",
        "meta_norad_cat_id": 40267,
        "meta_element_set_no": 999,
        "meta_rev_at_epoch": 4088,
        "meta_bstar": 0,
        "meta_mean_motion_dot": -2.67e-06,
        "meta_mean_motion_ddot": 0,
        "tle_line1": "1 40267U 14060A   25345.87615016 -.00000267  00000+0  00000+0 0  9997",
        "tle_line2": "2 40267   0.0351 192.2334 0001215 111.8054 232.8585  1.00270133 40883"
      },
      "geometry": {
        "type": "Point",
        "coordinates": [
          36.717255533731674,
          0.013434328492562026
        ]
      }
    },
    {
      "type": "Feature",
      "properties": {
        "norad_id": 40367,
        "name": "FENGYUN 2G",
        "group": "weather",
        "lat": -5.078025295453059,
        "lon": -4.326946598163628,
        "alt_km": 35787.47734115732,
        "timestamp": "2025-12-12T11:38:31.059100+00:00",
        "meta_object_name": "FENGYUN 2G",
        "meta_object_id": "2014-090A",
        "meta_epoch": "2025-12-11T19:07:12.834912",
        "meta_mean_motion": 1.00264403,
        "meta_eccentricity": 0.0003128,
        "meta_inclination": 5.1663,
        "meta_ra_of_asc_node": 75.1088,
        "meta_arg_of_pericenter": 196.7827,
        "meta_mean_anomaly": 195.2176,
        "meta_ephemeris_type": 0,
        "meta_classification_type": "U",
        "meta_norad_cat_id": 40367,
        "meta_element_set_no": 999,
        "meta_rev_at_epoch": 4012,
        "meta_bstar": 0,
        "meta_mean_motion_dot": -2.93e-06,
        "meta_mean_motion_ddot": 0,
        "tle_line1": "1 40367U 14090A   25345.79667633 -.00000293  00000+0  00000+0 0  9993",
        "tle_line2": "2 40367   5.1663  75.1088 0003128 196.7827 195.2176  1.00264403 40124"
      },
      "geometry": {
        "type": "Point",
        "coordinates": [
          -4.326946598163628,
          -5.078025295453059
        ]
      }
    },
    {
      "type": "Feature",
      "properties": {
        "norad_id": 40732,
        "name": "METEOSAT-11 (MSG-4)",
        "group": "weather",
        "lat": -0.6498157329136165,
        "lon": -94.65162277422422,
        "alt_km": 35785.892588525596,
        "timestamp": "2025-12-12T11:38:31.059112+00:00",
        "meta_object_name": "METEOSAT-11 (MSG-4)",
        "meta_object_id": "2015-034A",
        "meta_epoch": "2025-12-12T01:32:25.661760",
        "meta_mean_motion": 1.00267279,
        "meta_eccentricity": 9.32e-05,
        "meta_inclination": 2.7337,
        "meta_ra_of_asc_node": 72.0038,
        "meta_arg_of_pericenter": 125.7409,
        "meta_mean_anomaly": 275.68,
        "meta_ephemeris_type": 0,
        "meta_classification_type": "U",
        "meta_norad_cat_id": 40732,
        "meta_element_set_no": 999,
        "meta_rev_at_epoch": 534,
        "meta_bstar": 0,
        "meta_mean_motion_dot": 7e-07,
        "meta_mean_motion_ddot": 0,
        "tle_line1": "1 40732U 15034A   25346.06418590  .00000070  00000+0  00000+0 0  9997",
        "tle_line2": "2 40732   2.7337  72.0038 0000932 125.7409 275.6800  1.00267279  5346"
      },
      "geometry": {
        "type": "Point",
        "coordinates": [
          -94.65162277422422,
          -0.6498157329136165
        ]
      }
    },
    {
      "type": "Feature",
      "properties": {
        "norad_id": 41105,
        "name": "ELEKTRO-L 2",
        "group": "weather",
        "lat": 1.1992515127465762,
        "lon": -118.39490548544086,
        "alt_km": 35771.851550830455,
        "timestamp": "2025-12-12T11:38:31.059123+00:00",
        "meta_object_name": "ELEKTRO-L 2",
        "meta_object_id": "2015-074A",
        "meta_epoch": "2025-12-12T01:25:33.819744",
        "meta_mean_motion": 1.00272344,
        "meta_eccentricity": 0.0003918,
        "meta_inclination": 6.2245,
        "meta_ra_of_asc_node": 72.8364,
        "meta_arg_of_pericenter": 201.6005,
        "meta_mean_anomaly": 173.4667,
        "meta_ephemeris_type": 0,
        "meta_classification_type": "U",
        "meta_norad_cat_id": 41105,
        "meta_element_set_no": 999,
        "meta_rev_at_epoch": 3663,
        "meta_bstar": 0,
        "meta_mean_motion_dot": -1.09e-06,
        "meta_mean_motion_ddot": 0,
        "tle_line1": "1 41105U 15074A   25346.05941921 -.00000109  00000+0  00000+0 0  9998",
        "tle_line2": "2 41105   6.2245  72.8364 0003918 201.6005 173.4667  1.00272344 36632"
      },
      "geometry": {
        "type": "Point",
        "coordinates": [
          -118.39490548544086,
          1.1992515127465762
        ]
      }
    },
    {
      "type": "Feature",
      "properties": {
        "norad_id": 41752,
        "name": "INSAT-3DR",
        "group": "weather",
        "lat": -0.08192650998564639,
        "lon": -29.80585010367963,
        "alt_km": 35755.51224629019,
        "timestamp": "2025-12-12T11:38:31.059135+00:00",
        "meta_object_name": "INSAT-3DR",
        "meta_object_id": "2016-054A",
        "meta_epoch": "2025-12-12T03:33:36.556992",
        "meta_mean_motion": 1.00270808,
        "meta_eccentricity": 0.0014387,
        "meta_inclination": 0.0904,
        "meta_ra_of_asc_node": 86.6512,
        "meta_arg_of_pericenter": 184.0199,
        "meta_mean_anomaly": 297.8282,
        "meta_ephemeris_type": 0,
        "meta_classification_type": "U",
        "meta_norad_cat_id": 41752,
        "meta_element_set_no": 999,
        "meta_rev_at_epoch": 3394,
        "meta_bstar": 0,
        "meta_mean_motion_dot": -6.7e-07,
        "meta_mean_motion_ddot": 0,
        "tle_line1": "1 41752U 16054A   25346.14833978 -.00000067  00000+0  00000+0 0  9990",
        "tle_line2": "2 41752   0.0904  86.6512 0014387 184.0199 297.8282  1.00270808 33940"
      },
      "geometry": {
        "type": "Point",
        "coordinates": [
          -29.80585010367963,
          -0.08192650998564639
        ]
      }
    },
    {
      "type": "Feature",
      "properties": {
        "norad_id": 41836,
        "name": "HIMAWARI-9",
        "group": "weather",
        "lat": -0.006286327542217738,
        "lon": 36.8473354911847,
        "alt_km": 35788.719812511066,
        "timestamp": "2025-12-12T11:38:31.059147+00:00",
        "meta_object_name": "HIMAWARI-9",
        "meta_object_id": "2016-064A",
        "meta_epoch": "2025-12-11T21:01:46.862112",
        "meta_mean_motion": 1.00273832,
        "meta_eccentricity": 0.0001213,
        "meta_inclination": 0.0342,
        "meta_ra_of_asc_node": 93.1676,
        "meta_arg_of_pericenter": 175.9777,
        "meta_mean_anomaly": 267.9081,
        "meta_ephemeris_type": 0,
        "meta_classification_type": "U",
        "meta_norad_cat_id": 41836,
        "meta_element_set_no": 999,
        "meta_rev_at_epoch": 3333,
        "meta_bstar": 0,
        "meta_mean_motion_dot": -2.66e-06,
        "meta_mean_motion_ddot": 0,
        "tle_line1": "1 41836U 16064A   25345.87623683 -.00000266  00000+0  00000+0 0  9994",
        "tle_line2": "2 41836   0.0342  93.1676 0001213 175.9777 267.9081  1.00273832 33336"
      },
      "geometry": {
        "type": "Point",
        "coordinates": [
          36.8473354911847,
          -0.006286327542217738
        ]
      }
    }
  ]
}